OBJECT_NAME,OBJECT_ID,EPOCH,MEAN_MOTION,ECCENTRICITY,INCLINATION,RA_OF_ASC_NODE,ARG_OF_PERICENTER,MEAN_ANOMALY,EPHEMERIS_TYPE,CLASSIFICATION_TYPE,NORAD_CAT_ID,ELEMENT_SET_NO,REV_AT_EPOCH,BSTAR,MEAN_MOTION_DOT,MEAN_MOTION_DDOT
STARLINK-11114 [DTC],2024-091E,2026-05-10T01:52:11.567424,15.69706186,.0000507,53.1590,263.7675,71.9716,288.1357,0,U,59757,999,11515,.23378E-6,-.559E-5,0
STARLINK-11105 [DTC],2024-091F,2026-05-10T01:45:07.557696,15.69709088,.0001088,53.1598,263.7295,93.5639,266.5504,0,U,59758,999,11515,.51095E-5,.3E-6,0
STARLINK-11097 [DTC],2024-091G,2026-05-09T14:56:17.153664,15.69695945,.00009154,53.1580,265.8768,78.9404,281.1716,0,U,59759,999,11508,-.18023092E-4,-.277E-4,0
STARLINK-11098 [DTC],2024-091H,2026-05-09T16:20:54.356352,15.69697860,.00011344,53.1590,265.5314,49.0477,311.0639,0,U,59760,999,11509,-.14966031E-4,-.24E-4,0
STARLINK-11117 [DTC],2024-091J,2026-05-09T14:42:08.773056,15.69700786,.00007538,53.1601,265.8115,69.3803,290.7295,0,U,59761,999,11508,-.2652288E-4,-.3798E-4,0
STARLINK-11110 [DTC],2024-091K,2026-05-09T16:06:46.573632,15.69699193,.00006737,53.1579,265.4632,67.8477,292.2613,0,U,59762,999,11509,-.17467234E-4,-.2702E-4,0
STARLINK-11104 [DTC],2024-091L,2026-05-09T17:31:23.732256,15.69694770,.00010917,53.1599,265.1184,85.7627,274.3515,0,U,59763,999,11510,-.3568196E-5,-.102E-4,0
STARLINK-11111 [DTC],2024-091M,2026-05-10T01:47:58.187328,15.73386279,.0003353,53.1530,262.9874,342.5067,17.5836,0,U,59764,999,11516,.45181E-3,.63799E-3,0
STARLINK-11106 [DTC],2024-091N,2026-05-09T15:52:38.043552,15.69704173,.00010688,53.1597,265.3978,80.2991,279.8148,0,U,59765,999,11509,-.20534372E-4,-.3075E-4,0
STARLINK-31739,2024-091P,2026-05-10T04:51:18.878976,15.30195500,.0001241,53.1603,98.2362,85.5520,274.5623,0,U,59766,999,11246,-.26001E-4,-.1129E-4,0
STARLINK-31828,2024-091Q,2026-05-10T04:53:01.686336,15.31707269,.0001163,53.1598,101.0731,71.6228,288.4900,0,U,59767,999,11242,.16755E-4,.155E-5,0
STARLINK-31826,2024-091R,2026-05-10T04:48:23.113728,15.38563470,.0007538,53.1550,99.6342,79.9590,280.2265,0,U,59768,999,11244,.18924E-2,.73492E-3,0
STARLINK-31830,2024-091S,2026-05-10T03:48:34.292736,15.30195557,.0001111,53.1596,101.5037,96.3388,263.7739,0,U,59769,999,11241,-.35103E-4,-.1398E-4,0
STARLINK-31829,2024-091T,2026-05-10T05:08:57.215040,15.30196571,.0001116,53.1593,101.1463,80.3271,279.7856,0,U,59770,999,11242,-.26535E-4,-.1145E-4,0
STARLINK-31786,2024-091U,2026-05-10T03:54:39.189312,15.30189456,.0001245,53.1600,101.5302,94.7028,265.4115,0,U,59771,999,11241,-.27704E-4,-.1179E-4,0
STARLINK-31835,2024-091V,2026-05-10T04:46:18.702048,15.31700261,.0001323,53.1608,101.0459,83.0399,277.0753,0,U,59772,999,11242,-.32629E-5,-.466E-5,0
COSMOS 2576,2024-092A,2026-05-09T20:40:23.581920,15.19454835,.0013928,97.4334,246.3984,141.9556,218.2665,0,U,59773,999,11056,.25478E-3,.5347E-4,0
2024-092B,2024-092B,2026-05-10T04:41:37.627296,15.28019941,.000787,97.6435,258.3024,321.0719,38.9952,0,U,59774,999,10973,.24618E-3,.6656E-4,0
2024-092C,2024-092C,2026-05-10T04:38:10.579200,15.28702988,.0007979,97.6580,260.0345,323.5603,36.5092,0,U,59775,999,10977,.25742E-3,.7111E-4,0
2024-092D,2024-092D,2026-05-10T02:50:57.478848,15.35602095,.000624,97.6522,261.6764,284.2367,75.8183,0,U,59776,999,10990,.38102E-3,.13117E-3,0
2024-092E,2024-092E,2026-05-09T20:53:37.010400,15.35508164,.000634,97.6524,261.3809,284.8933,75.1607,0,U,59777,999,10986,.37583E-3,.12898E-3,0
2024-092F,2024-092F,2026-05-09T20:44:46.116960,15.36207900,.0006586,97.6519,261.6573,284.4188,75.6324,0,U,59778,999,10988,.38161E-3,.13396E-3,0
2024-092G,2024-092G,2026-05-10T05:02:33.320832,14.31831290,.0011059,98.6647,249.3004,324.4822,35.5624,0,U,59779,999,10346,.61672E-4,.12E-5,0
2024-092H,2024-092H,2026-05-10T05:02:26.115072,14.31831339,.001145,98.6651,249.2932,325.8297,34.2148,0,U,59780,999,10346,.58955E-4,.113E-5,0
2024-092J,2024-092J,2026-05-10T05:00:23.253408,14.31832483,.001135,98.6661,249.2970,326.1557,33.8901,0,U,59781,999,10346,.63192E-4,.124E-5,0
STARLINK-31363,2024-093A,2026-05-09T23:13:42.119040,15.27571401,.0001053,43.0023,219.6264,265.9519,94.1212,0,U,59782,999,11210,.24281E-4,.406E-5,0
STARLINK-31868,2024-093B,2026-05-10T05:32:09.996864,15.27580979,.0001083,43.0023,218.1231,235.7479,124.3270,0,U,59783,999,11214,-.46295E-5,-.389E-5,0
STARLINK-31848,2024-093C,2026-05-09T22:38:33.456192,15.27578902,.0001228,43.0009,219.4873,275.0744,84.9967,0,U,59784,999,11210,-.14628E-4,-.665E-5,0
STARLINK-31890,2024-093D,2026-05-09T22:44:07.018080,15.27560157,.0000838,43.0001,219.5149,278.9104,81.1652,0,U,59785,999,11210,-.76607E-4,-.2368E-4,0
STARLINK-31862,2024-093E,2026-05-09T23:38:43.216224,15.27573181,.0001404,43.0033,222.4042,268.8753,91.1938,0,U,59786,999,11207,-.43494E-4,-.1459E-4,0
STARLINK-31870,2024-093F,2026-05-09T23:33:09.722592,15.27571585,.0000412,43.0037,222.3738,284.5580,75.5226,0,U,59787,999,11207,-.10137E-4,-.541E-5,0
STARLINK-31888,2024-093G,2026-05-09T17:31:19.700832,15.27587638,.00019319,43.0032,223.9281,261.7374,98.3258,0,U,59788,999,11203,-.27917217E-4,-.1031E-4,0
STARLINK-31863,2024-093H,2026-05-09T17:27:36.945216,15.27591365,.0001084,42.9996,223.9162,297.3996,62.6745,0,U,59789,999,11203,.69428685E-4,.165E-4,0
STARLINK-31873,2024-093J,2026-05-09T17:42:26.272512,15.27579802,.00020292,42.9947,223.9819,190.3871,169.6939,0,U,59790,999,11203,-.21857004E-4,-.864E-5,0
STARLINK-31865,2024-093K,2026-05-09T17:47:59.798976,15.27565785,.00005683,42.9980,224.0085,213.7605,146.3211,0,U,59791,999,11203,.41915552E-4,.891E-5,0
STARLINK-31823,2024-093N,2026-05-09T22:36:00.427104,15.27580852,.0001131,43.0020,222.9265,296.7899,63.2837,0,U,59794,999,11206,-.45253E-4,-.1507E-4,0
STARLINK-31916,2024-093P,2026-05-09T22:41:33.831744,15.27571803,.0001034,42.9990,222.9580,282.6074,77.4662,0,U,59795,999,11206,-.3316E-4,-.1174E-4,0
STARLINK-31907,2024-093R,2026-05-09T22:45:15.391584,15.27576752,.0001516,42.9984,222.9740,285.5396,74.5288,0,U,59797,999,11206,.24755E-4,.419E-5,0
STARLINK-31687,2024-093S,2026-05-09T23:22:16.364064,15.27579762,.0000836,43.0017,223.1729,251.9446,108.1315,0,U,59798,999,11206,-.635E-4,-.2009E-4,0
STARLINK-31810,2024-093T,2026-05-09T23:01:54.679296,15.27575874,.0001327,43.0021,223.0639,272.4523,87.6177,0,U,59799,999,11206,-.72741E-5,-.462E-5,0
STARLINK-31812,2024-093U,2026-05-09T22:50:48.944832,15.27576111,.000094,42.9999,223.0068,265.1593,94.9152,0,U,59800,999,11213,-.50162E-4,-.1642E-4,0
STARLINK-31815,2024-093V,2026-05-09T22:56:21.228864,15.27581047,.0000877,42.9992,223.0351,309.4728,50.6046,0,U,59801,999,11206,-.10565E-3,-.3168E-4,0
STARLINK-31814,2024-093W,2026-05-09T23:27:48.719808,15.27579060,.0001128,43.0020,223.1849,254.4484,105.6244,0,U,59802,999,11206,-.16728E-4,-.722E-5,0
STARLINK-31794,2024-093X,2026-05-10T05:29:38.191200,15.27573569,.0000783,42.9993,221.6435,267.1484,92.9278,0,U,59803,999,11217,.14321E-4,.132E-5,0
STARLINK-31824,2024-093Y,2026-05-10T05:24:08.149248,15.27541610,.0001749,43.0016,221.6161,276.8598,83.2054,0,U,59804,999,11210,-.69965E-4,-.2185E-4,0
2024-094A,2024-094A,2026-05-10T05:26:02.350176,15.17078307,.000493,97.3877,202.0075,34.3506,325.8045,0,U,59805,999,10941,.23128E-3,.4515E-4,0
2024-094B,2024-094B,2026-05-10T04:39:06.290784,15.16273730,.0003661,97.3904,202.1864,254.3255,105.7575,0,U,59806,999,10940,.2269E-3,.4327E-4,0
2024-094C,2024-094C,2026-05-10T05:06:31.960224,15.16420216,.0002813,97.3929,202.3571,18.8552,341.2785,0,U,59807,999,10940,.24842E-3,.4763E-4,0
2024-094D,2024-094D,2026-05-10T04:16:25.029408,15.16528683,.0003579,97.3852,201.7513,29.2540,330.8893,0,U,59808,999,10939,.2123E-3,.4074E-4,0
2024-092K,2024-092K,2026-05-09T22:05:21.556032,15.35300832,.0006369,97.6513,261.2573,284.8104,75.2433,0,U,59809,999,10936,.38015E-3,.12962E-3,0
2024-095A,2024-095A,2026-05-10T04:49:49.944864,15.11023646,.0004129,97.5341,209.6683,77.0505,283.1186,0,U,59810,999,10840,.15731E-3,.2565E-4,0
2024-095C,2024-095C,2026-05-10T06:43:04.541088,15.90042128,.0008051,97.5434,235.0848,235.3398,124.7116,0,U,59812,999,11026,.10166E-2,.303035E-2,.35859E-4
STARLINK-31947,2024-097A,2026-05-09T17:21:26.356608,15.27583012,.00021972,42.9926,289.4584,114.8947,245.2133,0,U,59835,999,11125,.31698837E-4,.61E-5,0
STARLINK-31929,2024-097B,2026-05-09T12:02:10.043232,15.27596008,.00009051,42.9989,291.2287,157.6053,202.4838,0,U,59836,999,11121,-.36240865E-4,-.126E-4,0
STARLINK-31927,2024-097C,2026-05-09T17:47:20.340096,15.27574188,.00015666,43.0010,289.5920,289.2873,70.7809,0,U,59837,999,11125,.88717764E-4,.2179E-4,0
STARLINK-31855,2024-097D,2026-05-09T12:33:26.174304,15.27569627,.00013272,42.9994,290.5298,278.7168,81.3533,0,U,59838,999,11122,.86430207E-4,.2116E-4,0
STARLINK-31887,2024-097E,2026-05-10T03:49:17.285376,15.27561485,.0001096,43.0036,287.5638,253.4782,106.5949,0,U,59839,999,11131,.11407E-3,.2876E-4,0
STARLINK-31852,2024-097G,2026-05-10T03:17:09.969216,15.27569414,.0001232,43.0044,279.6122,250.9041,109.1678,0,U,59841,999,11140,.21581E-4,.332E-5,0
STARLINK-31906,2024-097H,2026-05-10T03:23:23.298432,15.27578347,.0001193,43.0028,287.4335,276.7938,83.2778,0,U,59842,999,11131,-.21733E-4,-.86E-5,0
STARLINK-31857,2024-097J,2026-05-09T21:49:06.155328,15.27582928,.0001729,43.0044,288.2664,272.5585,87.5069,0,U,59843,999,11128,.3508E-4,.703E-5,0
STARLINK-31851,2024-097K,2026-05-10T02:51:55.829088,15.27578562,.0001488,43.0023,287.2725,271.1749,88.8932,0,U,59844,999,11131,.15036E-4,.152E-5,0
STARLINK-31903,2024-097L,2026-05-09T17:37:38.674560,15.27556227,.00015833,43.0032,282.6123,284.9470,75.1206,0,U,59845,999,11133,.11840338E-3,.2995E-4,0
STARLINK-31922,2024-097M,2026-05-09T18:46:20.080704,15.27586722,.00014947,43.0011,289.0323,253.8599,106.2088,0,U,59846,999,11126,-.40140186E-4,-.1367E-4,0
STARLINK-31889,2024-097N,2026-05-10T03:56:42.017280,15.27579877,.0001284,43.0030,287.6042,257.6367,102.4341,0,U,59847,999,11131,-.61918E-4,-.1966E-4,0
STARLINK-31859,2024-097P,2026-05-10T03:11:49.971264,15.27576001,.0001056,43.0016,280.4451,261.5194,98.5538,0,U,59848,999,11139,-.27462E-4,-.1017E-4,0
